{"type": "FeatureCollection", "features": [ {"type": "Feature", "properties": {"norad_id": 42987, "name": "SKYSAT-C11", "group": "resource", "lat": -4.987205088899739, "lon": -46.04217748717203, "alt_km": 426.7291831465145, "timestamp": "2025-12-22T20:43:45.500346+00:00", "meta": {"OBJECT_NAME": "SKYSAT-C11", "OBJECT_ID": "2017-068A", "EPOCH": "2025-12-22T09:04:19.742592", "MEAN_MOTION": 15.4783486, "ECCENTRICITY": 0.00011593, "INCLINATION": 97.4148, "RA_OF_ASC_NODE": 134.111, "ARG_OF_PERICENTER": 97.7993, "MEAN_ANOMALY": 262.3389, "EPHEMERIS_TYPE": 0, "CLASSIFICATION_TYPE": "U", "NORAD_CAT_ID": 42987, "ELEMENT_SET_NO": 999, "REV_AT_EPOCH": 45580, "BSTAR": 0.00047146012, "MEAN_MOTION_DOT": 0.00024446, "MEAN_MOTION_DDOT": 0}, "tle": {"line1": "1 42987U 17068A   25356.37800628  .00024446  00000+0  47146-3 0  9991", "line2": "2 42987  97.4148 134.1110 0001159  97.7993 262.3389 15.47834860455807"}}, "geometry": {"type": "Point", "coordinates": [-46.04217748717203, -4.987205088899739]}}, {"type": "Feature", "properties": {"norad_id": 42988, "name": "SKYSAT-C10", "group": "resource", "lat": 60.82022557205804, "lon": 114.23540328278766, "alt_km": 459.5945351286373, "timestamp": "2025-12-22T20:43:45.500356+00:00", "meta": {"OBJECT_NAME": "SKYSAT-C10", "OBJECT_ID": "2017-068B", "EPOCH": "2025-12-22T07:55:21.309600", "MEAN_MOTION": 15.32254447, "ECCENTRICITY": 0.00053841, "INCLINATION": 97.4266, "RA_OF_ASC_NODE": 127.2088, "ARG_OF_PERICENTER": 77.4364, "MEAN_ANOMALY": 282.7479, "EPHEMERIS_TYPE": 0, "CLASSIFICATION_TYPE": "U", "NORAD_CAT_ID": 42988, "ELEMENT_SET_NO": 999, "REV_AT_EPOCH": 45526, "BSTAR": 0.00038413858, "MEAN_MOTION_DOT": 0.00011895, "MEAN_MOTION_DDOT": 0}, "tle": {"line1": "1 42988U 17068B   25356.33010775  .00011895  00000+0  38414-3 0  9996", "line2": "2 42988  97.4266 127.2088 0005384  77.4364 282.7479 15.32254447455264"}}, "geometry": {"type": "Point", "coordinates": [114.23540328278766, 60.82022557205804]}}, {"type": "Feature", "properties": {"norad_id": 42989, "name": "SKYSAT-C9", "group": "resource", "lat": 54.41384344428317, "lon": 116.70553241156523, "alt_km": 444.8580376927084, "timestamp": "2025-12-22T20:43:45.500366+00:00", "meta": {"OBJECT_NAME": "SKYSAT-C9", "OBJECT_ID": "2017-068C", "EPOCH": "2025-12-22T07:59:05.940096", "MEAN_MOTION": 15.36278923, "ECCENTRICITY": 0.00104177, "INCLINATION": 97.4197, "RA_OF_ASC_NODE": 126.6635, "ARG_OF_PERICENTER": 57.0944, "MEAN_ANOMALY": 303.1301, "EPHEMERIS_TYPE": 0, "CLASSIFICATION_TYPE": "U", "NORAD_CAT_ID": 42989, "ELEMENT_SET_NO": 999, "REV_AT_EPOCH": 45555, "BSTAR": 0.0004065654, "MEAN_MOTION_DOT": 0.00014331, "MEAN_MOTION_DDOT": 0}, "tle": {"line1": "1 42989U 17068C   25356.33270764  .00014331  00000+0  40657-3 0  9993", "line2": "2 42989  97.4197 126.6635 0010417  57.0944 303.1301 15.36278923455553"}}, "geometry": {"type": "Point", "coordinates": [116.70553241156523, 54.41384344428317]}}, {"type": "Feature", "properties": {"norad_id": 42990, "name": "SKYSAT-C8", "group": "resource", "lat": -82.41875216959694, "lon": -154.46283718034803, "alt_km": 473.17558741910943, "timestamp": "2025-12-22T20:43:45.500377+00:00", "meta": {"OBJECT_NAME": "SKYSAT-C8", "OBJECT_ID": "2017-068D", "EPOCH": "2025-12-21T21:37:05.479104", "MEAN_MOTION": 15.33109138, "ECCENTRICITY": 0.00010393, "INCLINATION": 97.4289, "RA_OF_ASC_NODE": 125.9421, "ARG_OF_PERICENTER": 294.8108, "MEAN_ANOMALY": 65.3026, "EPHEMERIS_TYPE": 0, "CLASSIFICATION_TYPE": "U", "NORAD_CAT_ID": 42990, "ELEMENT_SET_NO": 999, "REV_AT_EPOCH": 45511, "BSTAR": 0.00035698248, "MEAN_MOTION_DOT": 0.00011344, "MEAN_MOTION_DDOT": 0}, "tle": {"line1": "1 42990U 17068D   25355.90075786  .00011344  00000+0  35698-3 0  9994", "line2": "2 42990  97.4289 125.9421 0001039 294.8108  65.3026 15.33109138455116"}}, "geometry": {"type": "Point", "coordinates": [-154.46283718034803, -82.41875216959694]}}, {"type": "Feature", "properties": {"norad_id": 42991, "name": "SKYSAT-C7", "group": "resource", "lat": 73.08988870090126, "lon": -26.63791272286648, "alt_km": 460.472022080884, "timestamp": "2025-12-22T20:43:45.500387+00:00", "meta": {"OBJECT_NAME": "SKYSAT-C7", "OBJECT_ID": "2017-068E", "EPOCH": "2025-12-21T14:29:53.176416", "MEAN_MOTION": 15.32498854, "ECCENTRICITY": 0.0007098, "INCLINATION": 97.4298, "RA_OF_ASC_NODE": 126.6779, "ARG_OF_PERICENTER": 29.4906, "MEAN_ANOMALY": 330.6735, "EPHEMERIS_TYPE": 0, "CLASSIFICATION_TYPE": "U", "NORAD_CAT_ID": 42991, "ELEMENT_SET_NO": 999, "REV_AT_EPOCH": 45513, "BSTAR": 0.00028728, "MEAN_MOTION_DOT": 8.944e-05, "MEAN_MOTION_DDOT": 0}, "tle": {"line1": "1 42991U 17068E   25355.60408769  .00008944  00000+0  28728-3 0  9991", "line2": "2 42991  97.4298 126.6779 0007098  29.4906 330.6735 15.32498854455132"}}, "geometry": {"type": "Point", "coordinates": [-26.63791272286648, 73.08988870090126]}}, {"type": "Feature", "properties": {"norad_id": 42992, "name": "SKYSAT-C6", "group": "resource", "lat": -11.550161121819102, "lon": -53.15616031414507, "alt_km": 477.6922180282827, "timestamp": "2025-12-22T20:43:45.500397+00:00", "meta": {"OBJECT_NAME": "SKYSAT-C6", "OBJECT_ID": "2017-068F", "EPOCH": "2025-12-22T08:55:14.322720", "MEAN_MOTION": 15.31675748, "ECCENTRICITY": 0.00048921, "INCLINATION": 97.4326, "RA_OF_ASC_NODE": 127.8792, "ARG_OF_PERICENTER": 56.5714, "MEAN_ANOMALY": 303.5995, "EPHEMERIS_TYPE": 0, "CLASSIFICATION_TYPE": "U", "NORAD_CAT_ID": 42992, "ELEMENT_SET_NO": 999, "REV_AT_EPOCH": 45523, "BSTAR": 0.00038354996, "MEAN_MOTION_DOT": 0.00011662, "MEAN_MOTION_DDOT": 0}, "tle": {"line1": "1 42992U 17068F   25356.37169355  .00011662  00000+0  38355-3 0  9990", "line2": "2 42992  97.4326 127.8792 0004892  56.5714 303.5995 15.31675748455236"}}, "geometry": {"type": "Point", "coordinates": [-53.15616031414507, -11.550161121819102]}}, {"type": "Feature", "properties": {"norad_id": 43111, "name": "CARTOSAT-2F", "group": "resource", "lat": -28.97515638469526, "lon": -129.80702491481512, "alt_km": 514.345984269944, "timestamp": "2025-12-22T20:43:45.500407+00:00", "meta": {"OBJECT_NAME": "CARTOSAT-2F", "OBJECT_ID": "2018-004A", "EPOCH": "2025-12-22T15:04:09.844608", "MEAN_MOTION": 15.19221339, "ECCENTRICITY": 0.00014343, "INCLINATION": 97.4305, "RA_OF_ASC_NODE": 54.1053, "ARG_OF_PERICENTER": 108.1005, "MEAN_ANOMALY": 252.0386, "EPHEMERIS_TYPE": 0, "CLASSIFICATION_TYPE": "U", "NORAD_CAT_ID": 43111, "ELEMENT_SET_NO": 999, "REV_AT_EPOCH": 44052, "BSTAR": 0.00045679153, "MEAN_MOTION_DOT": 9.557e-05, "MEAN_MOTION_DDOT": 0}, "tle": {"line1": "1 43111U 18004A   25356.62789172  .00009557  00000+0  45679-3 0  9995", "line2": "2 43111  97.4305  54.1053 0001434 108.1005 252.0386 15.19221339440522"}}, "geometry": {"type": "Point", "coordinates": [-129.80702491481512, -28.97515638469526]}}, {"type": "Feature", "properties": {"norad_id": 43259, "name": "GAOFEN-1 02", "group": "resource", "lat": -36.967228457669044, "lon": -131.48092703698163, "alt_km": 645.6598170601792, "timestamp": "2025-12-22T20:43:45.500417+00:00", "meta": {"OBJECT_NAME": "GAOFEN-1 02", "OBJECT_ID": "2018-031A", "EPOCH": "2025-12-22T14:52:06.945312", "MEAN_MOTION": 14.76435609, "ECCENTRICITY": 0.00024154, "INCLINATION": 98.0795, "RA_OF_ASC_NODE": 54.4124, "ARG_OF_PERICENTER": 178.9303, "MEAN_ANOMALY": 181.1912, "EPHEMERIS_TYPE": 0, "CLASSIFICATION_TYPE": "U", "NORAD_CAT_ID": 43259, "ELEMENT_SET_NO": 999, "REV_AT_EPOCH": 41664, "BSTAR": 0.00017578358, "MEAN_MOTION_DOT": 1.171e-05, "MEAN_MOTION_DDOT": 0}, "tle": {"line1": "1 43259U 18031A   25356.61952483  .00001171  00000+0  17578-3 0  9995", "line2": "2 43259  98.0795  54.4124 0002415 178.9303 181.1912 14.76435609416645"}}, "geometry": {"type": "Point", "coordinates": [-131.48092703698163, -36.967228457669044]}}, {"type": "Feature", "properties": {"norad_id": 43260, "name": "GAOFEN-1 03", "group": "resource", "lat": -26.569468720254676, "lon": 58.60526774195709, "alt_km": 645.752108944992, "timestamp": "2025-12-22T20:43:45.500427+00:00", "meta": {"OBJECT_NAME": "GAOFEN-1 03", "OBJECT_ID": "2018-031B", "EPOCH": "2025-12-22T14:20:40.885152", "MEAN_MOTION": 14.76456029, "ECCENTRICITY": 0.00016987, "INCLINATION": 98.0784, "RA_OF_ASC_NODE": 54.2661, "ARG_OF_PERICENTER": 269.494, "MEAN_ANOMALY": 90.6075, "EPHEMERIS_TYPE": 0, "CLASSIFICATION_TYPE": "U", "NORAD_CAT_ID": 43260, "ELEMENT_SET_NO": 999, "REV_AT_EPOCH": 41663, "BSTAR": 0.00012727644, "MEAN_MOTION_DOT": 8.34e-06, "MEAN_MOTION_DDOT": 0}, "tle": {"line1": "1 43260U 18031B   25356.59769543  .00000834  00000+0  12728-3 0  9994", "line2": "2 43260  98.0784  54.2661 0001698 269.4940  90.6075 14.76456029416636"}}, "geometry": {"type": "Point", "coordinates": [58.60526774195709, -26.569468720254676]}}, {"type": "Feature", "properties": {"norad_id": 43262, "name": "GAOFEN-1 04", "group": "resource", "lat": 75.14118552870941, "lon": -92.92436565007812, "alt_km": 633.1905162124285, "timestamp": "2025-12-22T20:43:45.500436+00:00", "meta": {"OBJECT_NAME": "GAOFEN-1 04", "OBJECT_ID": "2018-031D", "EPOCH": "2025-12-22T13:45:38.647008", "MEAN_MOTION": 14.76423981, "ECCENTRICITY": 6.386e-05, "INCLINATION": 98.0796, "RA_OF_ASC_NODE": 54.4126, "ARG_OF_PERICENTER": 54.8072, "MEAN_ANOMALY": 305.3197, "EPHEMERIS_TYPE": 0, "CLASSIFICATION_TYPE": "U", "NORAD_CAT_ID": 43262, "ELEMENT_SET_NO": 999, "REV_AT_EPOCH": 41662, "BSTAR": 9.5468863e-05, "MEAN_MOTION_DOT": 6.12e-06, "MEAN_MOTION_DDOT": 0}, "tle": {"line1": "1 43262U 18031D   25356.57336397  .00000612  00000+0  95469-4 0  9999", "line2": "2 43262  98.0796  54.4126 0000638  54.8072 305.3197 14.76423981416625"}}, "geometry": {"type": "Point", "coordinates": [-92.92436565007812, 75.14118552870941]}}]}